OBJECT_NAME,OBJECT_ID,EPOCH,MEAN_MOTION,ECCENTRICITY,INCLINATION,RA_OF_ASC_NODE,ARG_OF_PERICENTER,MEAN_ANOMALY,EPHEMERIS_TYPE,CLASSIFICATION_TYPE,NORAD_CAT_ID,ELEMENT_SET_NO,REV_AT_EPOCH,BSTAR,MEAN_MOTION_DOT,MEAN_MOTION_DDOT
STARLINK-31596,2024-057S,2026-07-14T00:35:05.448768,15.27575903,.00010603,42.9990,193.3144,299.0649,61.0096,0,U,59336,999,12916,-.5258131E-5,-.407E-5,0
STARLINK-31612,2024-057T,2026-07-14T01:08:23.731296,15.27574393,.0001251,43.0035,193.4909,273.5385,86.5324,0,U,59337,999,12916,.4115959E-5,-.149E-5,0
STARLINK-31550,2024-057U,2026-07-14T01:45:24.759072,15.27584866,.00021676,42.9987,193.6805,290.4664,69.5955,0,U,59338,999,12916,.89125059E-4,.2191E-4,0
STARLINK-31473,2024-057V,2026-07-14T10:16:41.106720,15.27572266,.00008337,43.0009,191.1843,274.5906,85.4850,0,U,59339,999,12922,.7072755E-5,-.67E-6,0
STARLINK-31562,2024-057W,2026-07-14T09:26:13.352640,15.27581987,.00023702,42.9994,206.5011,298.2989,61.7624,0,U,59340,999,12904,-.12936807E-3,-.3821E-4,0
STARLINK-31600,2024-057X,2026-07-14T08:48:43.383456,15.27657053,.00015302,43.0000,199.3730,208.3844,151.6925,0,U,59341,999,12912,-.73078976E-3,-.20364E-3,0
STARLINK-31628,2024-057Y,2026-07-14T10:46:17.584896,15.27571391,.0001465,43.0045,191.3438,278.1990,81.8696,0,U,59342,999,12922,-.35612862E-4,-.1242E-4,0
YUNHAI-3 02,2024-058A,2026-07-14T14:04:31.860768,14.13327959,.00006216,98.8201,203.0564,47.1452,312.9772,0,U,59343,999,11861,.9125252E-5,-.27E-6,0
EUTELSAT 36D,2024-059A,2026-07-14T15:06:38.933856,1.00269930,.00001862,0.0287,63.5173,191.1869,300.3320,0,U,59346,999,842,0,0,0
STARLINK-31605,2024-060A,2026-07-14T10:59:14.409888,15.27572164,.00012953,43.0009,253.2756,277.7379,82.3326,0,U,59348,999,12951,-.42023351E-4,-.1418E-4,0
STARLINK-31532,2024-060B,2026-07-14T11:30:26.875872,15.27577007,.0001183,42.9978,263.8200,273.9009,86.1707,0,U,59349,999,12950,.32864036E-4,.642E-5,0
STARLINK-31593,2024-060C,2026-07-14T12:22:02.987904,15.27588290,.00012007,43.0023,263.2307,252.6740,107.3981,0,U,59350,999,12946,.66452115E-4,.1567E-4,0
STARLINK-31555,2024-060D,2026-07-14T11:41:33.147744,15.27573005,.00012796,43.0025,263.8784,270.0826,89.9879,0,U,59351,999,12950,-.24626808E-4,-.94E-5,0
STARLINK-31561,2024-060E,2026-07-14T06:01:42.974976,15.27579317,.00012534,43.0015,264.6858,243.3723,116.7000,0,U,59352,999,12942,.3269948E-5,-.172E-5,0
STARLINK-31413,2024-060F,2026-07-14T06:22:04.219104,15.27576863,.00015065,43.0006,264.7953,253.0505,107.0182,0,U,59353,999,12942,.12748469E-4,.89E-6,0
STARLINK-31422,2024-060G,2026-07-14T12:13:00.728544,15.27573259,.0001087,43.0021,264.0404,257.8761,102.1969,0,U,59354,999,12945,-.13885739E-4,-.644E-5,0
STARLINK-31416,2024-060H,2026-07-14T11:36:00.318528,15.27571955,.00012858,43.0009,263.8477,279.4502,80.6204,0,U,59355,999,12945,-.28456788E-4,-.1045E-4,0
STARLINK-31552,2024-060J,2026-07-14T05:50:50.016480,15.27578192,.00014277,43.0017,265.5048,282.1849,77.8843,0,U,59356,999,12941,-.9596142E-5,-.526E-5,0
STARLINK-31557,2024-060K,2026-07-14T04:07:53.645088,15.27577549,.00010899,43.0003,261.4531,226.3246,133.7516,0,U,59357,999,12945,.18289825E-4,.241E-5,0
STARLINK-31559,2024-060L,2026-07-14T11:15:38.860128,15.27581405,.0001839,42.9996,263.7422,267.1974,92.8668,0,U,59358,999,12945,-.30500623E-4,-.1102E-4,0
STARLINK-31501,2024-060M,2026-07-14T11:56:21.190272,15.27575103,.00013181,43.0015,263.9578,268.3153,91.7547,0,U,59359,999,12945,-.21330175E-4,-.849E-5,0
STARLINK-31549,2024-060N,2026-07-14T12:33:08.966016,15.27582319,.00016772,43.0029,263.2897,276.1341,83.9320,0,U,59360,999,12946,.12028695E-3,.3049E-4,0
STARLINK-31560,2024-060P,2026-07-14T11:47:05.020512,15.27619395,.00016815,43.0008,263.9043,282.0777,77.9886,0,U,59361,999,12945,-.36709172E-3,-.10362E-3,0
STARLINK-31571,2024-060Q,2026-07-14T11:50:48.012000,15.27575467,.00010132,42.9995,263.9225,266.1153,93.9583,0,U,59362,999,12945,-.9988308E-5,-.537E-5,0
STARLINK-31553,2024-060R,2026-07-14T11:35:32.588448,15.27575880,.00015863,43.0044,256.9147,281.4912,78.5761,0,U,59363,999,12953,.33964375E-4,.672E-5,0
STARLINK-31547,2024-060S,2026-07-14T11:17:31.519680,15.27573915,.000069,42.9999,252.5003,261.4148,98.6625,0,U,59364,999,12958,-.24254834E-4,-.929E-5,0
STARLINK-31537,2024-060T,2026-07-14T12:01:55.960032,15.27570622,.00023161,43.0055,263.9839,285.3665,74.6931,0,U,59365,999,12945,-.14500185E-4,-.661E-5,0
STARLINK-31451,2024-060U,2026-07-14T10:53:26.327616,15.27577509,.00020078,43.0042,263.6307,285.1260,74.9370,0,U,59366,999,12945,.15393596E-4,.161E-5,0
STARLINK-31428,2024-060V,2026-07-14T12:44:15.195552,15.27574346,.000125,43.0008,263.3451,256.8936,103.1776,0,U,59367,999,12946,-.25774644E-4,-.971E-5,0
STARLINK-31419,2024-060W,2026-07-14T11:19:21.104256,15.27572330,.0001521,43.0012,263.7606,281.2655,78.8025,0,U,59368,999,12945,-.14543282E-4,-.662E-5,0
