STARLINK-31596          
1 59336U 24057S   26195.02436862 -.00000407  00000+0 -52581-5 0  9996
2 59336  42.9990 193.3144 0001060 299.0649  61.0096 15.27575903129167
STARLINK-31612          
1 59337U 24057T   26195.04749689 -.00000149  00000+0  41160-5 0  9996
2 59337  43.0035 193.4909 0001251 273.5385  86.5324 15.27574393129164
STARLINK-31550          
1 59338U 24057U   26195.07320323  .00002191  00000+0  89125-4 0  9990
2 59338  42.9987 193.6805 0002167 290.4664  69.5955 15.27584866129168
STARLINK-31473          
1 59339U 24057V   26195.42825355 -.00000067  00000+0  70728-5 0  9996
2 59339  43.0009 191.1843 0000833 274.5906  85.4850 15.27572266129220
STARLINK-31562          
1 59340U 24057W   26195.39321010 -.00003821  00000+0 -12937-3 0  9991
2 59340  42.9994 206.5011 0002370 298.2989  61.7624 15.27581987129049
STARLINK-31600          
1 59341U 24057X   26195.36716879 -.00020364  00000+0 -73079-3 0  9995
2 59341  43.0000 199.3730 0001530 208.3844 151.6925 15.27657053129126
STARLINK-31628          
1 59342U 24057Y   26195.44881464 -.00001242  00000+0 -35613-4 0  9995
2 59342  43.0045 191.3438 0001465 278.1990  81.8696 15.27571391129227
YUNHAI-3 02             
1 59343U 24058A   26195.58647987 -.00000027  00000+0  91253-5 0  9994
2 59343  98.8201 203.0564 0000621  47.1452 312.9772 14.13327959118618
EUTELSAT 36D            
1 59346U 24059A   26195.62961729  .00000000  00000+0  00000+0 0  9990
2 59346   0.0287  63.5173 0000186 191.1869 300.3320  1.00269930  8426
STARLINK-31605          
1 59348U 24060A   26195.45780567 -.00001418  00000+0 -42023-4 0  9996
2 59348  43.0009 253.2756 0001295 277.7379  82.3326 15.27572164129518
STARLINK-31532          
1 59349U 24060B   26195.47947773  .00000642  00000+0  32864-4 0  9991
2 59349  42.9978 263.8200 0001183 273.9009  86.1707 15.27577007129502
STARLINK-31593          
1 59350U 24060C   26195.51531236  .00001567  00000+0  66452-4 0  9998
2 59350  43.0023 263.2307 0001200 252.6740 107.3981 15.27588290129466
STARLINK-31555          
1 59351U 24060D   26195.48718921 -.00000940  00000+0 -24627-4 0  9997
2 59351  43.0025 263.8784 0001279 270.0826  89.9879 15.27573005129503
STARLINK-31561          
1 59352U 24060E   26195.25119184 -.00000172  00000+0  32699-5 0  9994
2 59352  43.0015 264.6858 0001253 243.3723 116.7000 15.27579317129423
STARLINK-31413          
1 59353U 24060F   26195.26532661  .00000089  00000+0  12748-4 0  9993
2 59353  43.0006 264.7953 0001506 253.0505 107.0182 15.27576863129425
STARLINK-31422          
1 59354U 24060G   26195.50903621 -.00000644  00000+0 -13886-4 0  9992
2 59354  43.0021 264.0404 0001087 257.8761 102.1969 15.27573259129455
STARLINK-31416          
1 59355U 24060H   26195.48333702 -.00001045  00000+0 -28457-4 0  9993
2 59355  43.0009 263.8477 0001285 279.4502  80.6204 15.27571955129455
STARLINK-31552          
1 59356U 24060J   26195.24363445 -.00000526  00000+0 -95961-5 0  9993
2 59356  43.0017 265.5048 0001427 282.1849  77.8843 15.27578192129414
STARLINK-31557          
1 59357U 24060K   26195.17214867  .00000241  00000+0  18290-4 0  9990
2 59357  43.0003 261.4531 0001089 226.3246 133.7516 15.27577549129455
STARLINK-31559          
1 59358U 24060L   26195.46919977 -.00001102  00000+0 -30501-4 0  9995
2 59358  42.9996 263.7422 0001839 267.1974  92.8668 15.27581405129452
STARLINK-31501          
1 59359U 24060M   26195.49746748 -.00000849  00000+0 -21330-4 0  9990
2 59359  43.0015 263.9578 0001318 268.3153  91.7547 15.27575103129457
STARLINK-31549          
1 59360U 24060N   26195.52302044  .00003049  00000+0  12029-3 0  9990
2 59360  43.0029 263.2897 0001677 276.1341  83.9320 15.27582319129465
STARLINK-31560          
1 59361U 24060P   26195.49103033 -.00010362  00000+0 -36709-3 0  9993
2 59361  43.0008 263.9043 0001681 282.0777  77.9886 15.27619395129451
STARLINK-31571          
1 59362U 24060Q   26195.49361125 -.00000537  00000+0 -99883-5 0  9999
2 59362  42.9995 263.9225 0001013 266.1153  93.9583 15.27575467129450
STARLINK-31553          
1 59363U 24060R   26195.48301607  .00000672  00000+0  33964-4 0  9993
2 59363  43.0044 256.9147 0001586 281.4912  78.5761 15.27575880129536
STARLINK-31547          
1 59364U 24060S   26195.47050370 -.00000929  00000+0 -24255-4 0  9991
2 59364  42.9999 252.5003 0000690 261.4148  98.6625 15.27573915129585
STARLINK-31537          
1 59365U 24060T   26195.50134213 -.00000661  00000+0 -14500-4 0  9990
2 59365  43.0055 263.9839 0002316 285.3665  74.6931 15.27570622129452
STARLINK-31451          
1 59366U 24060U   26195.45377694  .00000161  00000+0  15394-4 0  9992
2 59366  43.0042 263.6307 0002007 285.1260  74.9370 15.27577509129453
STARLINK-31428          
1 59367U 24060V   26195.53073143 -.00000971  00000+0 -25775-4 0  9999
2 59367  43.0008 263.3451 0001250 256.8936 103.1776 15.27574346129469
STARLINK-31419          
1 59368U 24060W   26195.47177204 -.00000662  00000+0 -14543-4 0  9994
2 59368  43.0012 263.7606 0001521 281.2655  78.8025 15.27572330129457
